{
  "type": "FeatureCollection",
  "features": [
    {
      "type": "Feature",
      "properties": {
        "info": "campus"
      },
      "geometry": {
        "coordinates": [
          [
            [
              -118.46684358540347,
              34.06769082678035
            ],
            [
              -118.46899584955263,
              34.065989755440654
            ],
            [
              -118.4680296109012,
              34.06092977291746
            ],
            [
              -118.4660281165518,
              34.0588713884959
            ],
            [
              -118.46285333241138,
              34.055068963589804
            ],
            [
              -118.45935523775445,
              34.05116648297751
            ],
            [
              -118.45894113547527,
              34.05116648297751
            ],
            [
              -118.45863055876588,
              34.05208140982781
            ],
            [
              -118.45814743944015,
              34.053453781589894
            ],
            [
              -118.4560079109977,
              34.05448304583193
            ],
            [
              -118.45338526322925,
              34.055226395568056
            ],
            [
              -118.45397190622519,
              34.056427176708425
            ],
            [
              -118.45442051702764,
              34.057856656860125
            ],
            [
              -118.45738825002874,
              34.06148742806039
            ],
            [
              -118.45987286370385,
              34.06005800914373
            ],
            [
              -118.46221944328589,
              34.06231647998483
            ],
            [
              -118.46325469898386,
              34.06423184479729
            ],
            [
              -118.46304764784426,
              34.06508945680051
            ],
            [
              -118.46460053139123,
              34.066461617951845
            ],
            [
              -118.46684358540347,
              34.06769082678035
            ]
          ]
        ],
        "type": "Polygon"
      },
      "id": 3
    }
  ]
}