{
  "type": "FeatureCollection",
  "features": [
    {
      "type": "Feature",
      "properties": {
        "info": "LANC"
      },
      "geometry": {
        "coordinates": [
          [
            [
              -118.45953719511327,
              34.065571708956824
            ],
            [
              -118.45191081104014,
              34.056652171119936
            ],
            [
              -118.45084104681888,
              34.05722396455573
            ],
            [
              -118.45018538487686,
              34.05705242693
            ],
            [
              -118.44776978824828,
              34.05791011158719
            ],
            [
              -118.45463698437837,
              34.0657146431185
            ],
            [
              -118.45512010370408,
              34.066858103851004
            ],
            [
              -118.45953719511327,
              34.065571708956824
            ]
          ]
        ],
        "type": "Polygon"
      },
      "id": 1
    }
  ]
}