{
    "type": "FeatureCollection",
    "features": [
      {
        "type": "Feature",
        "properties": {
          "id": "bw_schl",
          "stroke": "#555555",
          "stroke-width": 2,
          "stroke-opacity": 1,
          "fill": "#555555",
          "fill-opacity": 0.5
        },
        "geometry": {
          "coordinates": [
            [
              [
                -118.46896614986406,
                34.06581195994198
              ],
              [
                -118.46832665739105,
                34.06584650899073
              ],
              [
                -118.46788179306196,
                34.06517855822132
              ],
              [
                -118.46771496893861,
                34.06464880041959
              ],
              [
                -118.46717279053735,
                34.06448756912641
              ],
              [
                -118.4667835342494,
                34.06418813876907
              ],
              [
                -118.4661579437869,
                34.06309405731241
              ],
              [
                -118.46554625533446,
                34.063209224446354
              ],
              [
                -118.46507358698483,
                34.06372747461435
              ],
              [
                -118.4655601573445,
                34.06544343588064
              ],
              [
                -118.46493456688201,
                34.06667568193059
              ],
              [
                -118.46683914229052,
                34.06770062060042
              ],
              [
                -118.46896614986406,
                34.06581195994198
              ]
            ]
          ],
          "type": "Polygon"
        },
        "id": 0
      },
      {
        "type": "Feature",
        "properties": {
          "id": "jr_stadium",
          "stroke": "#555555",
          "stroke-width": 2,
          "stroke-opacity": 1,
          "fill": "#555555",
          "fill-opacity": 0.5
        },
        "geometry": {
          "coordinates": [
            [
              [
                -118.45878018211258,
                34.05983485097043
              ],
              [
                -118.45912773236944,
                34.0599730568278
              ],
              [
                -118.45964210675012,
                34.05996153968175
              ],
              [
                -118.46083767963444,
                34.05944326648448
              ],
              [
                -118.46000355901748,
                34.058660092084196
              ],
              [
                -118.45868286804037,
                34.05813029353307
              ],
              [
                -118.45752900118711,
                34.058706161366885
              ],
              [
                -118.45851604391697,
                34.059938505385105
              ],
              [
                -118.45878018211258,
                34.05983485097043
              ]
            ]
          ],
          "type": "Polygon"
        },
        "id": 1
      },
      {
        "type": "Feature",
        "properties": {
          "id": "bridgeland",
          "stroke": "#555555",
          "stroke-width": 2,
          "stroke-opacity": 1,
          "fill": "#555555",
          "fill-opacity": 0.5
        },
        "geometry": {
          "coordinates": [
            [
              [
                -118.4566531757354,
                34.05908622268818
              ],
              [
                -118.45577734908778,
                34.0582569754869
              ],
              [
                -118.45574954506722,
                34.05778476164912
              ],
              [
                -118.45481811037804,
                34.058222423343906
              ],
              [
                -118.45574954506722,
                34.0596160152633
              ],
              [
                -118.4566531757354,
                34.05908622268818
              ]
            ]
          ],
          "type": "Polygon"
        },
        "id": 2
      }
    ]
  }